[{"OBJECT_NAME":"OBJECT B","OBJECT_ID":"2025-313B","EPOCH":"2026-03-09T22:01:30.454176","MEAN_MOTION":14.73613198,"ECCENTRICITY":0.02934893,"INCLINATION":97.5206,"RA_OF_ASC_NODE":141.38,"ARG_OF_PERICENTER":298.1139,"MEAN_ANOMALY":59.0692,"EPHEMERIS_TYPE":0,"CLASSIFICATION_TYPE":"U","NORAD_CAT_ID":67249,"ELEMENT_SET_NO":999,"REV_AT_EPOCH":1051,"BSTAR":0.00024043091,"MEAN_MOTION_DOT":3.075e-5,"MEAN_MOTION_DDOT":0},{"OBJECT_NAME":"METEOR 1-24","OBJECT_ID":"1976-032A","EPOCH":"2026-03-09T17:39:02.746944","MEAN_MOTION":14.11892727,"ECCENTRICITY":0.00350831,"INCLINATION":81.2582,"RA_OF_ASC_NODE":325.254,"ARG_OF_PERICENTER":135.3514,"MEAN_ANOMALY":225.0493,"EPHEMERIS_TYPE":0,"CLASSIFICATION_TYPE":"U","NORAD_CAT_ID":8799,"ELEMENT_SET_NO":999,"REV_AT_EPOCH":56994,"BSTAR":5.3510388e-5,"MEAN_MOTION_DOT":1.11e-6,"MEAN_MOTION_DDOT":0}]
